NORAD_CAT_ID,OBJECT_NAME,OBJECT_TYPE,EPOCH,MEAN_MOTION,ECCENTRICITY,INCLINATION,RA_OF_ASC_NODE,ARG_OF_PERICENTER,MEAN_ANOMALY,BSTAR,MEAN_MOTION_DOT,MEAN_MOTION_DDOT,TLE_LINE0,TLE_LINE1,TLE_LINE2,SEMIMAJOR_AXIS,PERIOD,APOGEE,PERIGEE,DECAYED
50189.0,STARLINK-3276,PAYLOAD,2021-12-23 16:00:00,15.97996209,0.0064908,53.216,341.466,171.5057,43.7617,0.0010370999999999,0.00611857,0.00017274,0 STARLINK-3276,1 50189U 21125AK  21357.66667824  .00611857  17274-3  10371-2 0  9993,2 50189  53.2160 341.4660 0064908 171.5057  43.7617 15.97996209  3625,6658.116,90.113,323.197,236.764,0.0
50189.0,STARLINK-3276,PAYLOAD,2021-12-24 06:00:00,15.97581937,0.0060653,53.2173,338.4751,174.4965,158.5792,-0.001628,-0.00916513,0.0002766,0 STARLINK-3276,1 50189U 21125AK  21358.25001157 -.00916513  27660-3 -16280-2 0  9994,2 50189  53.2173 338.4751 0060653 174.4965 158.5792 15.97581937  3716,6659.267,90.136,321.522,240.741,0.0
50189.0,STARLINK-3276,PAYLOAD,2021-12-24 14:00:01,15.96987639,0.0057763,53.2174,336.7652,175.7783,275.1611,-0.0016829999999999,-0.00897177,0.00026452,0 STARLINK-3276,1 50189U 21125AK  21358.58334491 -.00897177  26452-3 -16830-2 0  9993,2 50189  53.2174 336.7652 0057763 175.7783 275.1611 15.96987639  1428,6660.919,90.17,321.259,244.308,0.0
50189.0,STARLINK-3276,PAYLOAD,2021-12-24 22:00:00,15.96384386,0.0054488,53.2177,335.0561,177.15599999999995,30.9467,-0.0017076,-0.00861275,0.00024423,0 STARLINK-3276,1 50189U 21125AK  21358.91667824 -.00861275  24423-3 -17076-2 0  9998,2 50189  53.2177 335.0561 0054488 177.1560  30.9467 15.96384386  3813,6662.597,90.204,320.765,248.159,0.0
50189.0,STARLINK-3276,PAYLOAD,2021-12-25 06:00:00,15.95823476,0.0050913999999999,53.2176,333.3523,179.0735,145.4718,-0.001913,-0.0091469,0.00027063,0 STARLINK-3276,1 50189U 21125AK  21359.25001157 -.00914690  27063-3 -19130-2 0  9993,2 50189  53.2176 333.3523 0050914 179.0735 145.4718 15.95823476  3870,6664.158,90.236,319.953,252.093,0.0
50189.0,STARLINK-3276,PAYLOAD,2021-12-25 14:00:01,15.95234951,0.0048282,53.2173,331.6466,181.1804,259.1146,-0.0019907,-0.00907729,0.00026533,0 STARLINK-3276,1 50189U 21125AK  21359.58334491 -.00907729  26533-3 -19907-2 0  9997,2 50189  53.2173 331.6466 0048282 181.1804 259.1146 15.95234951  3928,6665.797,90.269,319.846,255.478,0.0
50189.0,STARLINK-3276,PAYLOAD,2021-12-25 22:00:00,15.94628903,0.0045413999999999,53.2175,329.9421,181.881,13.4657,-0.0019897,-0.00864958,0.00024174,0 STARLINK-3276,1 50189U 21125AK  21359.91667824 -.00864958  24174-3 -19897-2 0  9996,2 50189  53.2175 329.9421 0045414 181.8810  13.4657 15.94628903  3975,6667.486,90.303,319.63,259.071,0.0
50189.0,STARLINK-3276,PAYLOAD,2021-12-26 06:00:02,15.94063107,0.0041891,53.2176,328.2425,184.3874,125.3583,-0.0021936,-0.00909162,0.00026296,0 STARLINK-3276,1 50189U 21125AK  21360.25002315 -.00909162  26296-3 -21936-2 0  9994,2 50189  53.2176 328.2425 0041891 184.3874 125.3583 15.94063107  4033,6669.063,90.335,318.866,262.991,0.0
50189.0,STARLINK-3276,PAYLOAD,2021-12-26 14:00:01,15.93481431,0.0039727,53.2175,326.5411,186.7195,236.5948,-0.0023036,-0.00916409,0.00026521,0 STARLINK-3276,1 50189U 21125AK  21360.58334491 -.00916409  26521-3 -23036-2 0  9999,2 50189  53.2175 326.5411 0039727 186.7195 236.5948 15.93481431  4083,6670.686,90.368,319.052,266.05,0.0
50189.0,STARLINK-3276,PAYLOAD,2021-12-26 22:00:00,15.9287304,0.0036527,53.2175,324.8413,188.1702,348.0842,-0.0022839,-0.00868877,0.00023948,0 STARLINK-3276,1 50189U 21125AK  21360.91667824 -.00868877  23948-3 -22839-2 0  9990,2 50189  53.2175 324.8413 0036527 188.1702 348.0842 15.92873040  4139,6672.385,90.403,318.622,269.877,0.0
50189.0,STARLINK-3276,PAYLOAD,2021-12-27 06:00:00,15.92301228,0.0033411,53.2174,323.1462,190.8687,97.6082,-0.0024675,-0.00900409,0.00025394,0 STARLINK-3276,1 50189U 21125AK  21361.25001157 -.00900409  25394-3 -24675-2 0  9994,2 50189  53.2174 323.1462 0033411 190.8687  97.6082 15.92301228  4198,6673.982,90.435,318.145,273.548,0.0
50189.0,STARLINK-3276,PAYLOAD,2021-12-27 14:00:01,15.91726776,0.0031237,53.2175,321.4489,193.5232,206.4743,-0.0026267,-0.00923209,0.00026417,0 STARLINK-3276,1 50189U 21125AK  21361.58334491 -.00923209  26417-3 -26267-2 0  9999,2 50189  53.2175 321.4489 0031237 193.5232 206.4743 15.91726776  4247,6675.5880000000025,90.468,318.305,276.6,0.0
50189.0,STARLINK-3276,PAYLOAD,2021-12-27 22:00:00,15.91120539,0.0028243,53.2178,319.7536,195.8208,315.0039,-0.0026048,-0.00879731,0.00024074,0 STARLINK-3276,1 50189U 21125AK  21361.91667824 -.00879731  24074-3 -26048-2 0  9999,2 50189  53.2178 319.7536 0028243 195.8208 315.0039 15.91120539  4299,6677.283,90.502,318.007,280.289,0.0
50189.0,STARLINK-3276,PAYLOAD,2021-12-28 06:00:00,15.90538398,0.0025412,53.2176,318.0629,199.2044,61.734,-0.0027342,-0.00889465,0.00024419,0 STARLINK-3276,1 50189U 21125AK  21362.25001157 -.00889465  24419-3 -27342-2 0  9994,2 50189  53.2176 318.0629 0025412 199.2044  61.7340 15.90538398  4355,6678.9119999999975,90.535,317.75,283.805,0.0
50189.0,STARLINK-3276,PAYLOAD,2021-12-28 14:00:01,15.8996973,0.0023443,53.2174,316.3698,202.4814,167.8636,-0.0029411,-0.00924698,0.0002605,0 STARLINK-3276,1 50189U 21125AK  21362.58334491 -.00924698  26050-3 -29411-2 0  9990,2 50189  53.2174 316.3698 0023443 202.4814 167.8636 15.89969730  4402,6680.505,90.568,318.031,286.709,0.0
50189.0,STARLINK-3276,PAYLOAD,2021-12-28 22:00:00,15.89369581,0.002046,53.2175,314.6790000000001,206.0143,273.0436,-0.0029498,-0.00894375,0.00024389,0 STARLINK-3276,1 50189U 21125AK  21362.91667824 -.00894375  24389-3 -29498-2 0  9992,2 50189  53.2175 314.6790 0020460 206.0143 273.0436 15.89369581  4459,6682.186,90.602,317.723,290.38,0.0
50189.0,STARLINK-3276,PAYLOAD,2021-12-29 06:00:02,15.88776337,0.0017832,53.2177,312.9924,211.3858,15.7436,-0.003004,-0.00880021,0.00023556,0 STARLINK-3276,1 50189U 21125AK  21363.25002315 -.00880021  23556-3 -30040-2 0  9991,2 50189  53.2177 312.9924 0017832 211.3858  15.7436 15.88776337  4510,6683.85,90.636,317.633,293.796,0.0
50189.0,STARLINK-3276,PAYLOAD,2021-12-29 14:00:01,15.88209046,0.0016094999999999,53.2176,311.3035,217.384,117.0396,-0.0032353,-0.00918421,0.00025308,0 STARLINK-3276,1 50189U 21125AK  21363.58335648 -.00918421  25308-3 -32353-2 0  9997,2 50189  53.2176 311.3035 0016095 217.3840 117.0396 15.88209046  4566,6685.441,90.668,318.066,296.546,0.0
50189.0,STARLINK-3276,PAYLOAD,2021-12-29 21:39:37,15.87813577,0.0015981,53.22,309.6908,221.4174,138.5642,-0.00054061,-0.00153764,1.825900000000001e-05,0 STARLINK-3276,1 50189U 21125AK  21363.90251649 -.00153764  18259-4 -54061-3 0  9991,2 50189  53.2200 309.6908 0015981 221.4174 138.5642 15.87813577  5148,6686.551,90.691,319.1020000000001,297.73,0.0
50189.0,STARLINK-3276,PAYLOAD,2021-12-29 22:00:00,15.87621083,0.0013673,53.2176,309.6176,224.853,216.1007,-0.0033239,-0.00835795,0.0,0 STARLINK-3276,1 50189U 21125AK  21363.91667824 -.00835795  00000-0 -33239-2 0  9993,2 50189  53.2176 309.6176 0013673 224.8530 216.1007 15.87621083  4614,6687.092,90.702,318.1,299.813,0.0
50189.0,STARLINK-3276,PAYLOAD,2021-12-30 06:00:00,15.86930086,0.0011742,53.218,307.9355,235.0362,311.8563,-0.0027672,-0.00681792,0.0,0 STARLINK-3276,1 50189U 21125AK  21364.25001157 -.00681792  00000-0 -27672-2 0  9992,2 50189  53.2180 307.9355 0011742 235.0362 311.8563 15.86930086  4661,6689.033,90.741,318.752,303.043,0.0
50189.0,STARLINK-3276,PAYLOAD,2021-12-30 14:00:01,15.86318852,0.0009995,53.2181,306.2511,248.8725,43.2259,-0.0027411,-0.00655773,0.0,0 STARLINK-3276,1 50189U 21125AK  21364.58334491 -.00655773  00000-0 -27411-2 0  9999,2 50189  53.2181 306.2511 0009995 248.8725  43.2259 15.86318852  2386,6690.751,90.776,319.303,305.928,0.0
50189.0,STARLINK-3276,PAYLOAD,2021-12-30 22:00:01,15.85867943,0.0008958,53.2178,304.5691,260.388,136.1928,-0.0036776,-0.00841945,0.0,0 STARLINK-3276,1 50189U 21125AK  21364.91668981 -.00841945  00000-0 -36776-2 0  9992,2 50189  53.2178 304.5691 0008958 260.3880 136.1928 15.85867943  2442,6692.019,90.802,319.879,307.889,0.0
50189.0,STARLINK-3276,PAYLOAD,2021-12-31 14:00:01,15.84680732,0.000455,53.2175,301.2106,268.5883,334.7863,-0.003767,-0.00813396,0.0,0 STARLINK-3276,1 50189U 21125AK  21365.58334491 -.00813396  00000-0 -37670-2 0  9995,2 50189  53.2175 301.2106 0004550 268.5883 334.7863 15.84680732  2544,6695.361,90.87,320.272,314.1790000000001,0.0
50189.0,STARLINK-3276,PAYLOAD,2021-12-31 20:32:30,15.8520984,0.0008395,53.2208,299.8403,267.9017,92.1047,-8.423299999999999e-05,-0.00021175,0.0,0 STARLINK-3276,1 50189U 21125AK  21365.85591202 -.00021175  00000-0 -84233-4 0  9995,2 50189  53.2208 299.8403 0008395 267.9017  92.1047 15.85209840  5456,6693.871,90.84,321.355,310.116,0.0
50189.0,STARLINK-3276,PAYLOAD,2021-12-31 22:00:00,15.840977800000005,0.0002742,53.2176,299.5336,271.9498,73.7949,-0.0039,-0.00817472,0.0,0 STARLINK-3276,1 50189U 21125AK  21365.91667824 -.00817472  00000-0 -39000-2 0  9999,2 50189  53.2176 299.5336 0002742 271.9498  73.7949 15.84097780  4935,6697.003000000002,90.903,320.705,317.032,0.0
50189.0,STARLINK-3276,PAYLOAD,2022-01-01 12:00:00,15.83079428,5.34e-05,53.2175,296.6026,108.7036,324.4946,-0.0041619,-0.00828963,0.0,0 STARLINK-3276,1 50189U 21125AK  22001.50001157 -.00828963  00000-0 -41619-2 0  9999,2 50189  53.2175 296.6026 0000534 108.7036 324.4946 15.83079428  5022,6699.875,90.962,322.098,321.382,0.0
50189.0,STARLINK-3276,PAYLOAD,2022-01-01 14:00:01,15.8293016,8.46e-05,53.2177,296.1836,96.005,92.4355,-0.0041659,-0.00824427,0.0,0 STARLINK-3276,1 50189U 21125AK  22001.58335648 -.00824427  00000-0 -41659-2 0  9997,2 50189  53.2177 296.1836 0000846  96.0050  92.4355 15.82930160  2716,6700.295999999999,90.971,322.728,321.594,0.0
50189.0,STARLINK-3276,PAYLOAD,2022-01-01 22:00:00,15.82347667,0.0001082,53.2178,294.5113,79.2938,209.3377,-0.004311,-0.00829512,0.0,0 STARLINK-3276,1 50189U 21125AK  22001.91667824 -.00829512  00000-0 -43110-2 0  9992,2 50189  53.2178 294.5113 0001082  79.2938 209.3377 15.82347667  2760,6701.94,91.004,324.531,323.08,0.0
